DEMO8 (TENZING)         
1 48951U 21059CA  23341.33432044  .00005975  00000+0  26271-3 0  9996
2 48951  97.6263 118.0969 0015036  42.9812 317.2595 15.22180467135565
ASTROCAST-0201          
1 48954U 21059CD  23341.36693603  .00006806  00000+0  27886-3 0  9999
2 48954  97.6110 118.4042 0011229  42.4829 317.7275 15.24566692135636
ASTROCAST-0203          
1 48955U 21059CE  23341.32247228  .00007368  00000+0  30144-3 0  9999
2 48955  97.6091 117.9796 0013508  39.9864 320.2365 15.24556688135629
ASTROCAST-0205          
1 48960U 21059CK  23341.34460645  .00007859  00000+0  32119-3 0  9996
2 48960  97.6096 118.3067 0012361  22.5062 337.6715 15.24584452135632
GHALIB                  
1 48962U 21059CM  23341.84581632  .00052569  00000+0  10154-2 0  9995
2 48962  97.6062 124.5965 0003903   0.7475 359.3779 15.47621587136088
NAPA-2                  
1 48963U 21059CN  23342.11698364  .00007779  00000+0  35183-3 0  9991
2 48963  97.6169 115.8611 0012009  35.2608 324.9419 15.21144882135534
W-CUBE                  
1 48965U 21059CQ  23341.38518461  .00008441  00000+0  35045-3 0  9994
2 48965  97.6206 116.9086 0010753  29.4768 330.7073 15.24044759135505
NEPT-1                  
1 48966U 21059CR  23342.14486807  .00026945  00000+0  70481-3 0  9990
2 48966  97.6026 122.0672 0004700   5.4348 354.6946 15.38710974136002
JILIN-1 GAOFEN 3D01     
1 49004U 21061B   23342.16113935  .00008414  00000+0  36889-3 0  9993
2 49004  97.4267  43.7654 0011433  98.5196 261.7336 15.22175660134341
JILIN-1 GAOFEN 3D03     
1 49006U 21061D   23342.14143809  .00007230  00000+0  34813-3 0  9996
2 49006  97.4255  41.9321 0011224 143.4949 216.7053 15.18998789134228
XINGSHIDAI 10           
1 49007U 21061E   23342.13699132  .00007263  00000+0  35082-3 0  9996
2 49007  97.4260  41.8513 0012300 130.0023 230.2294 15.18878377134215
FENGYUN 3E              
1 49008U 21062A   23342.09076241  .00000029  00000+0  34259-4 0  9992
2 49008  98.7281 341.0072 0001088 181.5801 178.5372 14.19715403125732
DHABISAT (MYSAT-2)      
1 49016U 21013F   23341.25467384  .00192377  00000+0  11109-2 0  9991
2 49016  51.5770 289.4934 0005302 105.4136 254.7450 15.77513991136753
IT-SPINS                
1 49017U 21013G   23341.18603664  .00090353  00000+0  90969-3 0  9990
2 49017  51.5841 299.7422 0002238 115.8130 244.3096 15.64653721136554
ISS (NAUKA)             
1 49044U 21066A   23341.56939628  .00011597  00000+0  20902-3 0  9995
2 49044  51.6384 189.7648 0001444  14.3189 345.7840 15.50251715428672
BRO-4                   
1 49066U 21073A   23342.17817472  .00011592  00000+0  49559-3 0  9991
2 49066  97.4713  53.2112 0021130 216.0194 143.9620 15.22799876127452
RADCUBE                 
1 49067U 21073B   23341.62684763  .00022668  00000+0  77018-3 0  9993
2 49067  97.4662  54.2202 0016592 220.7297 139.2704 15.30352826127460
SUNSTORM                
1 49068U 21073C   23342.15031342  .00022436  00000+0  78989-3 0  9993
2 49068  97.4694  54.2831 0016790 221.0917 138.9059 15.29193723127508
LEDSAT                  
1 49069U 21073D   23342.17964119  .00007516  00000+0  36790-3 0  9999
2 49069  97.4646  50.3723 0020857 234.6175 125.3111 15.18282532127265
STARLINK-3100           
1 49144U 21082Q   23342.08509342 -.00001080  00000+0 -82707-4 0  9998
2 49144  69.9982 208.5219 0002340 286.4192  73.6710 14.98336649122760
CUTE                    
1 49263U 21088D   23341.18651637  .00009937  00000+0  56529-3 0  9990
2 49263  97.5252  44.2684 0016891  33.4459 326.7835 15.12939818120405
2021-091B               
1 49316U 21091B   23342.16407919  .00003253  00000+0  16202-3 0  9993
2 49316  97.4547 167.3213 0004408  75.5743 284.5979 15.18273509119074
2021-091H               
1 49322U 21091H   23342.14550717  .00010265  00000+0  34883-3 0  9999
2 49322  97.4483 171.5756 0013801  43.0029 317.2287 15.30572815119367
2021-091K               
1 49324U 21091K   23342.14251850  .00047939  00000+0  10156-2 0  9991
2 49324  97.4178 174.5387 0010342  25.3609 334.8145 15.44894100119678
SDGSAT 1                
1 49387U 21100A   23342.14140455  .00002983  00000+0  14704-3 0  9993
2 49387  97.3953  39.8651 0000820  38.8041 321.3252 15.18697710115892
ASTERISC                
1 49395U 21102A   23341.12797057  .00014057  00000+0  76782-3 0  9996
2 49395  97.4662  30.3503 0013024 171.8262 188.3184 15.14354059113990
TEIKYOSAT-4 (OORURI)    
1 49396U 21102B   23342.13342044  .00001590  00000+0  12187-3 0  9998
2 49396  97.4920  28.6072 0013000 201.5759 158.4920 15.03162379113890
Z-SAT                   
1 49399U 21102E   23342.08807560  .00003613  00000+0  24844-3 0  9995
2 49399  97.4622  29.7829 0020916 192.4757 167.5955 15.06359819114052
HIBARI                  
1 49400U 21102F   23341.13712650  .00005283  00000+0  33861-3 0  9992
2 49400  97.4615  29.7581 0018716 184.9328 175.1719 15.08799148113986
KOSEN-1                 
1 49402U 21102H   23342.13230989  .00003539  00000+0  22902-3 0  9991
2 49402  97.4554  30.6924 0019962 177.6651 182.4675 15.08640823114162
GLOBAL-14               
1 49469U 21106A   23342.13860062  .00015202  00000+0  38491-3 0  9999
2 49469  42.0124 274.0944 0001721 103.6669 256.4363 15.39465916116061
GLOBAL-15               
1 49470U 21106B   23341.32300457  .00020632  00000+0  45091-3 0  9995
2 49470  42.0034 318.7501 0020947 126.7394 233.5374 15.43504674115483
GAOFEN-3 02             
1 49495U 21109A   23342.08379392  .00000083  00000+0  38467-4 0  9991
2 49495  98.4140 347.0605 0001051 138.1349 221.9921 14.42211560107404
GLOBAL-12               
1 49772U 21115BA  23341.53493697  .00017653  00000+0  46155-3 0  9993
2 49772  53.2086  75.2750 0002876  95.1212 265.0121 15.38859727113663
GLOBAL-13               
1 49773U 21115BB  23341.50601645  .00015661  00000+0  41095-3 0  9990
2 49773  53.2092  76.5941 0003751  24.5027 335.6156 15.38840919113643
2021-117A               
1 49812U 21117A   23342.15016568  .00046932  00000+0  74200-3 0  9991
2 49812  97.3363  65.5484 0006661 190.3472 169.7645 15.53310137112195
JINZIJING 1 03          
1 49813U 21117B   23342.18525995  .00101742  00000+0  91017-3 0  9990
2 49813  97.3255  64.8587 0005135 200.7799 159.3254 15.68028848112175
GLOBAL-17               
1 49949U 21120A   23342.15024041  .00003137  00000+0  87904-4 0  9997
2 49949  42.0072  40.9832 0010003  30.1258 330.0155 15.38407644112745
GLOBAL-16               
1 49950U 21120B   23341.59919792  .00015120  00000+0  39158-3 0  9994
2 49950  42.0073  43.7566 0009700  35.0266 325.1211 15.38738082112659
XW-3 (CAS-9)            
1 50466U 21131B   23342.13347010  .00000534  00000+0  18654-3 0  9990
2 50466  98.5427  63.0779 0003843 355.3798   4.7354 14.39232336102370
UMBRA-02                
1 50986U 22002C   23341.22044057  .00024356  00000+0  12184-2 0  9998
2 50986  97.4206  44.4153 0005506 181.6108 178.5109 15.17401484104944
TEVEL-3                 
1 50988U 22002E   23342.13836069  .00025143  00000+0  72492-3 0  9997
2 50988  97.4123  48.8315 0005693 347.4510  12.6591 15.35689514105359
TEVEL-8                 
1 50989U 22002F   23342.16559780  .00024884  00000+0  71944-3 0  9995
2 50989  97.4141  48.9364 0005614 345.4224  14.6856 15.35604922105354
ION SCV-004             
1 50993U 22002K   23342.18330495  .00003241  00000+0  17118-3 0  9999
2 50993  97.4181  42.4160 0008348   1.0796 359.0453 15.16184836104907
TEVEL-5                 
1 50998U 22002Q   23342.16033457  .00027576  00000+0  75941-3 0  9995
2 50998  97.4118  49.5008 0006414 337.5380  22.5582 15.37101364105408
TEVEL-6                 
1 50999U 22002R   23342.15953214  .00027370  00000+0  75419-3 0  9999
2 50999  97.4116  49.4893 0006397 337.0482  23.0476 15.37084285105406
TEVEL-1                 
1 51013U 22002AF  23342.15470481  .00025502  00000+0  73691-3 0  9992
2 51013  97.4116  48.7570 0005497 346.3108  13.7986 15.35617918105355
SANOSAT-1               
1 51031U 22002AZ  23341.65611899  .00121374  00000+0  14730-2 0  9998
2 51031  97.4194  54.9822 0005684 305.5467  54.5260 15.60184790105648
IRIS-A                  
1 51044U 22002BN  23341.18333946  .00011270  00000+0  46762-3 0  9998
2 51044  97.4145  44.2818 0007211   6.0678 354.0646 15.23998641104967
FLOCK 4X-28             
1 51045U 22002BP  23342.17046551  .00021911  00000+0  54552-3 0  9991
2 51045  97.4132  51.7794 0005838 311.2487  48.8255 15.40256386105532
FLOCK 4X-19             
1 51046U 22002BQ  23341.20650408  .00032918  00000+0  60466-3 0  9997
2 51046  97.4129  53.6393 0002966 319.2033  40.8996 15.49174388105555
KEPLER-19               
1 51051U 22002BV  23341.65226761  .00007895  00000+0  35383-3 0  9999
2 51051  97.4184  43.9135 0007389  13.3372 346.8058 15.21478167104964
ETV-A1                  
1 51060U 22002CE  23342.18004237  .00004301  00000+0  21367-3 0  9996
2 51060  97.4204  43.5193 0009264  24.1284 336.0383 15.18160233104963
BRO-5                   
1 51061U 22002CF  23342.12524249  .00004199  00000+0  20378-3 0  9997
2 51061  97.4251  44.4696 0009286  26.5309 333.6399 15.18992343105003
TEVEL-7                 
1 51062U 22002CG  23342.16327384  .00025398  00000+0  73316-3 0  9997
2 51062  97.4135  48.9041 0005619 345.4862  14.6219 15.35650649105355
TEVEL-4                 
1 51063U 22002CH  23342.17805855  .00024402  00000+0  70721-3 0  9995
2 51063  97.4133  48.8775 0005538 345.7642  14.3445 15.35534664105352
TEVEL-2                 
1 51069U 22002CP  23342.13916262  .00025634  00000+0  73861-3 0  9998
2 51069  97.4120  48.7996 0005627 347.1463  12.9636 15.35706305105353
DELFI-PQ                
1 51074U 22002CU  23342.16927559  .00238824  00000+0  16117-2 0  9995
2 51074  97.4317  59.8083 0005292 313.3775  46.7048 15.74384657105926
VZLUSAT-2               
1 51085U 22002DF  23342.12552033  .00007834  00000+0  35008-3 0  9990
2 51085  97.4179  44.1476 0012162  13.1029 347.0520 15.21541519105014
